ION SCV-004             
1 50993U 22002K   26068.68892644  .00006538  00000+0  23198-3 0  9998
2 50993  97.2961 128.2294 0007216   1.6783 358.4480 15.29369331230088
STARLINK-34337          
1 64223U 25117W   26068.29880920  .00032131  00000+0  10925-2 0  9991
2 64223  53.1613  41.5755 0001199  96.3533 263.7604 15.30194023 44468
