[{"OBJECT_NAME":"ION SCV-004","OBJECT_ID":"2022-002K","EPOCH":"2026-03-09T16:32:03.244416","MEAN_MOTION":15.29369331,"ECCENTRICITY":0.00072157,"INCLINATION":97.2961,"RA_OF_ASC_NODE":128.2294,"ARG_OF_PERICENTER":1.6783,"MEAN_ANOMALY":358.448,"EPHEMERIS_TYPE":0,"CLASSIFICATION_TYPE":"U","NORAD_CAT_ID":50993,"ELEMENT_SET_NO":999,"REV_AT_EPOCH":23008,"BSTAR":0.00023198467,"MEAN_MOTION_DOT":6.538e-5,"MEAN_MOTION_DDOT":0},{"OBJECT_NAME":"STARLINK-34337","OBJECT_ID":"2025-117W","EPOCH":"2026-03-09T07:10:17.114880","MEAN_MOTION":15.30194023,"ECCENTRICITY":0.00011994,"INCLINATION":53.1613,"RA_OF_ASC_NODE":41.5755,"ARG_OF_PERICENTER":96.3533,"MEAN_ANOMALY":263.7604,"EPHEMERIS_TYPE":0,"CLASSIFICATION_TYPE":"U","NORAD_CAT_ID":64223,"ELEMENT_SET_NO":999,"REV_AT_EPOCH":4446,"BSTAR":0.001092497,"MEAN_MOTION_DOT":0.00032131,"MEAN_MOTION_DDOT":0}]
